NORAD_CAT_ID,OBJECT_NAME,OBJECT_TYPE,EPOCH,MEAN_MOTION,ECCENTRICITY,INCLINATION,RA_OF_ASC_NODE,ARG_OF_PERICENTER,MEAN_ANOMALY,BSTAR,MEAN_MOTION_DOT,MEAN_MOTION_DDOT,TLE_LINE0,TLE_LINE1,TLE_LINE2,SEMIMAJOR_AXIS,PERIOD,APOGEE,PERIGEE,DECAYED
53934.0,STARLINK-4775,PAYLOAD,2023-07-16 09:06:42,15.08830702,0.0001141,53.2183,321.5974,92.4714,267.6409,-2.6242e-05,-7.05e-06,0.0,0 STARLINK-4775,1 53934U 22119BA  23197.37965432 -.00000705  00000-0 -26242-4 0  9994,2 53934  53.2183 321.5974 0001141  92.4714 267.6409 15.08830702 45583,6917.909,95.438,540.563,538.984,0.0
53934.0,STARLINK-4775,PAYLOAD,2023-07-16 15:28:14,15.08839037,0.0001105,53.2168,320.4068,98.3339,261.7779,2.7211e-06,-2.44e-06,0.0,0 STARLINK-4775,1 53934U 22119BA  23197.64460811 -.00000244  00000-0  27211-5 0  9990,2 53934  53.2168 320.4068 0001105  98.3339 261.7779 15.08839037 45626,6917.883,95.438,540.513,538.984,0.0
53934.0,STARLINK-4775,PAYLOAD,2023-07-17 15:19:00,15.08845998,0.000114,53.2176,315.9473,90.9041,269.2082,0.00013035,1.788e-05,0.0,0 STARLINK-4775,1 53934U 22119BA  23198.63820513  .00001788  00000-0  13035-3 0  9999,2 53934  53.2176 315.9473 0001140  90.9041 269.2082 15.08845998 45770,6917.862,95.437,540.516,538.938,0.0
53934.0,STARLINK-4775,PAYLOAD,2023-07-18 08:48:16,15.08838188,0.0001279,53.2183,312.6767,83.3033,276.8105,0.00012564,1.712e-05,0.0,0 STARLINK-4775,1 53934U 22119BA  23199.36685222  .00001712  00000-0  12564-3 0  9999,2 53934  53.2183 312.6767 0001279  83.3033 276.8105 15.08838188 45883,6917.886,95.438,540.636,538.866,0.0
53934.0,STARLINK-4775,PAYLOAD,2023-07-18 15:09:47,15.08848875,0.0001204,53.2181,311.4867,88.6376,271.4754,0.00017356,2.476e-05,0.0,0 STARLINK-4775,1 53934U 22119BA  23199.63180372  .00002476  00000-0  17356-3 0  9997,2 53934  53.2181 311.4867 0001204  88.6376 271.4754 15.08848875 45925,6917.853,95.437,540.551,538.885,0.0
53934.0,STARLINK-4775,PAYLOAD,2023-07-19 07:03:40,15.0883535,0.0001256,53.2174,308.5135,88.4531,271.6605,-6.4342e-05,-1.312e-05,0.0,0 STARLINK-4775,1 53934U 22119BA  23200.29421415 -.00001312  00000-0 -64342-4 0  9996,2 53934  53.2174 308.5135 0001256  88.4531 271.6605 15.08835350 46023,6917.895,95.438,540.628,538.891,0.0
53934.0,STARLINK-4775,PAYLOAD,2023-07-20 13:15:59,15.08849458,0.0001317,53.2179,302.8626,105.9103,254.2035,9.8674e-05,1.283e-05,0.0,0 STARLINK-4775,1 53934U 22119BA  23201.55276860  .00001283  00000-0  98674-4 0  9998,2 53934  53.2179 302.8626 0001317 105.9103 254.2035 15.08849458 46217,6917.851,95.437,540.628,538.805,0.0
53934.0,STARLINK-4775,PAYLOAD,2023-07-21 06:45:14,15.08840539,0.0001291,53.2182,299.5923,103.4232,256.6904,0.00019362,2.795e-05,0.0,0 STARLINK-4775,1 53934U 22119BA  23202.28141276  .00002795  00000-0  19362-3 0  9996,2 53934  53.2182 299.5923 0001291 103.4232 256.6904 15.08840539 46324,6917.879,95.438,540.637,538.851,0.0
53934.0,STARLINK-4775,PAYLOAD,2023-07-24 06:17:35,15.08841051,0.0001385,53.2167,286.21,95.9323,264.1827,0.00012561,1.712e-05,0.0,0 STARLINK-4775,1 53934U 22119BA  23205.26221497  .00001712  00000-0  12561-3 0  9993,2 53934  53.2167 286.2100 0001385  95.9323 264.1827 15.08841051 47214,6917.877,95.437,540.7,538.784,0.0
53934.0,STARLINK-4775,PAYLOAD,2023-07-25 10:54:32,15.08837995,0.0001337,53.2179,280.8582,96.4219,263.6925,2.086e-05,4.4e-07,0.0,0 STARLINK-4775,1 53934U 22119BA  23206.45454123  .00000044  00000-0  20860-4 0  9998,2 53934  53.2179 280.8582 0001337  96.4219 263.6925 15.08837995 47392,6917.887,95.438,540.676,538.827,0.0
53934.0,STARLINK-4775,PAYLOAD,2023-07-26 05:59:09,15.08839045,0.0001083,53.2158,277.2885,86.1254,273.9862,8.5512e-05,1.073e-05,0.0,0 STARLINK-4775,1 53934U 22119BA  23207.24941954  .00001073  00000-0  85512-4 0  9997,2 53934  53.2158 277.2885 0001083  86.1254 273.9862 15.08839045 47514,6917.883,95.438,540.498,538.999,0.0
53934.0,STARLINK-4775,PAYLOAD,2023-07-26 21:53:00,15.08846702,0.000107,53.2157,274.3144,87.6855,272.4259,0.00014821,2.072e-05,0.0,0 STARLINK-4775,1 53934U 22119BA  23207.91181178  .00002072  00000-0  14821-3 0  9999,2 53934  53.2157 274.3144 0001070  87.6855 272.4259 15.08846702 47611,6917.86,95.437,540.465,538.985,0.0
53934.0,STARLINK-4775,PAYLOAD,2023-07-27 10:36:05,15.08844761,0.0001114,53.2158,271.9358,88.3793,271.7327,0.00011612,1.561e-05,0.0,0 STARLINK-4775,1 53934U 22119BA  23208.44173322  .00001561  00000-0  11612-3 0  9997,2 53934  53.2158 271.9358 0001114  88.3793 271.7327 15.08844761 47699,6917.866,95.437,540.501,538.96,0.0
53934.0,STARLINK-4775,PAYLOAD,2023-07-27 21:43:47,15.08843215,0.0001012,53.2153,269.8554,92.8199,267.2909,3.8536e-05,3.26e-06,0.0,0 STARLINK-4775,1 53934U 22119BA  23208.90541392  .00000326  00000-0  38536-4 0  9997,2 53934  53.2153 269.8554 0001012  92.8199 267.2909 15.08843215 47762,6917.871,95.437,540.436,539.035,0.0
53934.0,STARLINK-4775,PAYLOAD,2023-07-28 07:16:07,15.08824469,0.0001064,53.2158,268.0732,51.2492,308.8595,2.6185e-05,1.29e-06,0.0,0 STARLINK-4775,1 53934U 22119BA  23209.30286760  .00000129  00000-0  26185-4 0  9995,2 53934  53.2158 268.0732 0001064  51.2492 308.8595 15.08824469 47389,6917.928,95.439,540.529,539.057,0.0
53934.0,STARLINK-4775,PAYLOAD,2023-07-28 13:37:40,15.08828805,0.0001055,53.2146,266.8821,56.3442,303.765,-5.19e-06,-3.7e-06,0.0,0 STARLINK-4775,1 53934U 22119BA  23209.56782708 -.00000370  00000-0 -51900-5 0  9990,2 53934  53.2146 266.8821 0001055  56.3442 303.7650 15.08828805 47869,6917.915,95.438,540.509,539.05,0.0
53934.0,STARLINK-4775,PAYLOAD,2023-07-29 10:17:40,15.0883947,0.0001403,53.2159,263.0139,109.7986,250.3158,3.4837e-05,2.67e-06,0.0,0 STARLINK-4775,1 53934U 22119BA  23210.42893803  .00000267  00000-0  34837-4 0  9998,2 53934  53.2159 263.0139 0001403 109.7986 250.3158 15.08839470 47553,6917.882,95.438,540.718,538.776,0.0
53934.0,STARLINK-4775,PAYLOAD,2023-07-31 02:02:19,15.08837453,0.0001271,53.216,255.5804,100.0575,260.0561,6.7102e-05,7.8e-06,0.0,0 STARLINK-4775,1 53934U 22119BA  23212.08494230  .00000780  00000-0  67102-4 0  9994,2 53934  53.2160 255.5804 0001271 100.0575 260.0561 15.08837453 47804,6917.888,95.438,540.632,538.874,0.0
53934.0,STARLINK-4775,PAYLOAD,2023-08-01 09:50:02,15.08834864,0.0001147,53.2163,249.6339,96.5501,263.5621,-8.6812e-06,-4.26e-06,0.0,0 STARLINK-4775,1 53934U 22119BA  23213.40974744 -.00000426  00000-0 -86812-5 0  9993,2 53934  53.2163 249.6339 0001147  96.5501 263.5621 15.08834864 48005,6917.896,95.438,540.555,538.968,0.0
53934.0,STARLINK-4775,PAYLOAD,2023-08-03 01:34:40,15.08836694,0.0001202,53.2159,242.1985,81.8758,278.237,8.2902e-05,1.032e-05,0.0,0 STARLINK-4775,1 53934U 22119BA  23215.06574752  .00001032  00000-0  82902-4 0  9999,2 53934  53.2159 242.1985 0001202  81.8758 278.2370 15.08836694 48252,6917.89,95.438,540.587,538.924,0.0
53934.0,STARLINK-4775,PAYLOAD,2023-08-04 07:47:00,15.08839382,0.000116,53.2153,236.5488,84.3238,275.7886,5.2666e-05,5.5e-06,0.0,0 STARLINK-4775,1 53934U 22119BA  23216.32430753  .00000550  00000-0  52666-4 0  9999,2 53934  53.2153 236.5488 0001160  84.3238 275.7886 15.08839382 48447,6917.882,95.438,540.55,538.945,0.0
53934.0,STARLINK-4775,PAYLOAD,2023-08-05 10:48:33,15.08845652,0.0001138,53.2148,231.4934,86.8096,273.3026,5.7039e-05,6.2e-06,0.0,0 STARLINK-4775,1 53934U 22119BA  23217.45038237  .00000620  00000-0  57039-4 0  9992,2 53934  53.2148 231.4934 0001138  86.8096 273.3026 15.08845652 48611,6917.863,95.437,540.515,538.941,0.0
53934.0,STARLINK-4775,PAYLOAD,2023-08-06 10:39:20,15.08842305,0.0001131,53.2146,227.0323,88.3061,271.8061,5.1473e-05,5.32e-06,0.0,0 STARLINK-4775,1 53934U 22119BA  23218.44398310  .00000532  00000-0  51473-4 0  9991,2 53934  53.2146 227.0323 0001131  88.3061 271.8061 15.08842305 48764,6917.873,95.437,540.521,538.956,0.0
53934.0,STARLINK-4775,PAYLOAD,2023-08-07 00:57:49,15.08833783,0.0001263,53.2142,224.355,104.4129,255.7003,-4.0262e-05,-9.28e-06,0.0,0 STARLINK-4775,1 53934U 22119BA  23219.04015214 -.00000928  00000-0 -40262-4 0  9992,2 53934  53.2142 224.3550 0001263 104.4129 255.7003 15.08833783 48850,6917.899,95.438,540.638,538.891,0.0
53934.0,STARLINK-4775,PAYLOAD,2023-08-07 16:51:40,15.08841603,0.0001052,53.2156,221.3829,122.0182,238.0912,-5.382e-05,-1.144e-05,0.0,0 STARLINK-4775,1 53934U 22119BA  23219.70254814 -.00001144  00000-0 -53820-4 0  9991,2 53934  53.2156 221.3829 0001052 122.0182 238.0912 15.08841603 48956,6917.875,95.437,540.468,539.013,0.0
53934.0,STARLINK-4775,PAYLOAD,2023-08-09 00:39:23,15.08838288,0.0001199,53.2156,215.4359,99.3162,260.7966,2.2586e-05,7.2e-07,0.0,0 STARLINK-4775,1 53934U 22119BA  23221.02735179  .00000072  00000-0  22586-4 0  9999,2 53934  53.2156 215.4359 0001199  99.3162 260.7966 15.08838288 49153,6917.886,95.438,540.58,538.921,0.0
53934.0,STARLINK-4775,PAYLOAD,2023-08-09 22:54:47,15.08835027,0.0001218,53.2158,211.2727,91.4314,268.6817,-1.1895e-06,-3.07e-06,0.0,0 STARLINK-4775,1 53934U 22119BA  23221.95471636 -.00000307  00000-0 -11895-5 0  9991,2 53934  53.2158 211.2727 0001218  91.4314 268.6817 15.08835027 49297,6917.896,95.438,540.603,538.918,0.0
53934.0,STARLINK-4775,PAYLOAD,2023-08-11 08:17:52,15.08844007,0.000125,53.2153,205.0272,87.3469,272.7666,8.3275e-05,1.038e-05,0.0,0 STARLINK-4775,1 53934U 22119BA  23223.34574911  .00001038  00000-0  83275-4 0  9996,2 53934  53.2153 205.0272 0001250  87.3469 272.7666 15.08844007 49509,6917.868,95.437,540.598,538.868,0.0
53934.0,STARLINK-4775,PAYLOAD,2023-08-11 16:14:48,15.088395,0.0001319,53.2154,203.5408,85.4483,274.666,2.8217e-05,1.61e-06,0.0,0 STARLINK-4775,1 53934U 22119BA  23223.67695371  .00000161  00000-0  28217-4 0  9997,2 53934  53.2154 203.5408 0001319  85.4483 274.6660 15.08839500 49557,6917.882,95.438,540.659,538.834,0.0
53934.0,STARLINK-4775,PAYLOAD,2023-08-12 16:05:36,15.0882803,0.0001155,53.215,199.0799,95.2602,264.8522,0.00014751,2.06e-05,0.0,0 STARLINK-4775,1 53934U 22119BA  23224.67055643  .00002060  00000-0  14751-3 0  9997,2 53934  53.2150 199.0799 0001155  95.2602 264.8522 15.08828030 49706,6917.917,95.438,540.581,538.983,0.0
